{
  "type": "FeatureCollection",
  "features": [
    {
      "type": "Feature",
      "properties": {
        "norad_id": 40118,
        "name": "GAOFEN-2",
        "group": "resource",
        "lat": 49.39153169182066,
        "lon": 50.514286017060876,
        "alt_km": 617.2690385982751,
        "timestamp": "2025-12-26T19:22:38.551243+00:00",
        "meta_object_name": "GAOFEN-2",
        "meta_object_id": "2014-049A",
        "meta_epoch": "2025-12-26T14:17:11.673600",
        "meta_mean_motion": 14.80632582,
        "meta_eccentricity": 0.00087245,
        "meta_inclination": 98.0361,
        "meta_ra_of_asc_node": 59.7865,
        "meta_arg_of_pericenter": 74.7683,
        "meta_mean_anomaly": 285.4493,
        "meta_ephemeris_type": 0,
        "meta_classification_type": "U",
        "meta_norad_cat_id": 40118,
        "meta_element_set_no": 999,
        "meta_rev_at_epoch": 61369,
        "meta_bstar": 0.00016549637,
        "meta_mean_motion_dot": 1.218e-05,
        "meta_mean_motion_ddot": 0,
        "tle_line1": "1 40118U 14049A   25360.59527400  .00001218  00000+0  16550-3 0  9991",
        "tle_line2": "2 40118  98.0361  59.7865 0008724  74.7683 285.4493 14.80632582613698"
      },
      "geometry": {
        "type": "Point",
        "coordinates": [
          50.514286017060876,
          49.39153169182066
        ]
      }
    },
    {
      "type": "Feature",
      "properties": {
        "norad_id": 40143,
        "name": "YAOGAN-21",
        "group": "resource",
        "lat": 33.12923449127044,
        "lon": 38.79346430862326,
        "alt_km": 487.84884129664897,
        "timestamp": "2025-12-26T19:22:38.551253+00:00",
        "meta_object_name": "YAOGAN-21",
        "meta_object_id": "2014-053A",
        "meta_epoch": "2025-12-26T14:30:12.161952",
        "meta_mean_motion": 15.23817988,
        "meta_eccentricity": 0.00084725,
        "meta_inclination": 97.1735,
        "meta_ra_of_asc_node": 43.314,
        "meta_arg_of_pericenter": 355.3804,
        "meta_mean_anomaly": 4.7354,
        "meta_ephemeris_type": 0,
        "meta_classification_type": "U",
        "meta_norad_cat_id": 40143,
        "meta_element_set_no": 999,
        "meta_rev_at_epoch": 62865,
        "meta_bstar": 0.0003334354,
        "meta_mean_motion_dot": 7.975e-05,
        "meta_mean_motion_ddot": 0,
        "tle_line1": "1 40143U 14053A   25360.60430743  .00007975  00000+0  33344-3 0  9995",
        "tle_line2": "2 40143  97.1735  43.3140 0008472 355.3804   4.7354 15.23817988628652"
      },
      "geometry": {
        "type": "Point",
        "coordinates": [
          38.79346430862326,
          33.12923449127044
        ]
      }
    },
    {
      "type": "Feature",
      "properties": {
        "norad_id": 40275,
        "name": "YAOGAN-22",
        "group": "resource",
        "lat": 37.84466835635507,
        "lon": -27.09242532948251,
        "alt_km": 1197.5556538507062,
        "timestamp": "2025-12-26T19:22:38.551263+00:00",
        "meta_object_name": "YAOGAN-22",
        "meta_object_id": "2014-063A",
        "meta_epoch": "2025-12-26T15:00:38.332224",
        "meta_mean_motion": 13.15523292,
        "meta_eccentricity": 0.00061147,
        "meta_inclination": 100.7431,
        "meta_ra_of_asc_node": 144.2415,
        "meta_arg_of_pericenter": 215.0188,
        "meta_mean_anomaly": 145.0522,
        "meta_ephemeris_type": 0,
        "meta_classification_type": "U",
        "meta_norad_cat_id": 40275,
        "meta_element_set_no": 999,
        "meta_rev_at_epoch": 53712,
        "meta_bstar": 5.2736066e-05,
        "meta_mean_motion_dot": -2.7e-07,
        "meta_mean_motion_ddot": 0,
        "tle_line1": "1 40275U 14063A   25360.62544366 -.00000027  00000+0  52736-4 0  9990",
        "tle_line2": "2 40275 100.7431 144.2415 0006114 215.0188 145.0522 13.15523292537124"
      },
      "geometry": {
        "type": "Point",
        "coordinates": [
          -27.09242532948251,
          37.84466835635507
        ]
      }
    },
    {
      "type": "Feature",
      "properties": {
        "norad_id": 40298,
        "name": "ASNARO",
        "group": "resource",
        "lat": -53.21737553970573,
        "lon": -113.55028171217262,
        "alt_km": 516.8909880594965,
        "timestamp": "2025-12-26T19:22:38.551274+00:00",
        "meta_object_name": "ASNARO",
        "meta_object_id": "2014-070A",
        "meta_epoch": "2025-12-26T15:11:30.594336",
        "meta_mean_motion": 15.19785912,
        "meta_eccentricity": 0.00056599,
        "meta_inclination": 97.3633,
        "meta_ra_of_asc_node": 76.2401,
        "meta_arg_of_pericenter": 84.1259,
        "meta_mean_anomaly": 276.0621,
        "meta_ephemeris_type": 0,
        "meta_classification_type": "U",
        "meta_norad_cat_id": 40298,
        "meta_element_set_no": 999,
        "meta_rev_at_epoch": 61780,
        "meta_bstar": 0.00072043286,
        "meta_mean_motion_dot": 0.0001538,
        "meta_mean_motion_ddot": 0,
        "tle_line1": "1 40298U 14070A   25360.63299299  .00015380  00000+0  72043-3 0  9995",
        "tle_line2": "2 40298  97.3633  76.2401 0005659  84.1259 276.0621 15.19785912617804"
      },
      "geometry": {
        "type": "Point",
        "coordinates": [
          -113.55028171217262,
          -53.21737553970573
        ]
      }
    },
    {
      "type": "Feature",
      "properties": {
        "norad_id": 40310,
        "name": "YAOGAN-24",
        "group": "resource",
        "lat": 9.638726385413234,
        "lon": -46.63332726167082,
        "alt_km": 640.0694528223494,
        "timestamp": "2025-12-26T19:22:38.551284+00:00",
        "meta_object_name": "YAOGAN-24",
        "meta_object_id": "2014-072A",
        "meta_epoch": "2025-12-26T15:21:25.432416",
        "meta_mean_motion": 14.76205167,
        "meta_eccentricity": 0.00152106,
        "meta_inclination": 98.1233,
        "meta_ra_of_asc_node": 131.8083,
        "meta_arg_of_pericenter": 96.5051,
        "meta_mean_anomaly": 263.7891,
        "meta_ephemeris_type": 0,
        "meta_classification_type": "U",
        "meta_norad_cat_id": 40310,
        "meta_element_set_no": 999,
        "meta_rev_at_epoch": 59826,
        "meta_bstar": 0.00015538932,
        "meta_mean_motion_dot": 1.024e-05,
        "meta_mean_motion_ddot": 0,
        "tle_line1": "1 40310U 14072A   25360.63987769  .00001024  00000+0  15539-3 0  9995",
        "tle_line2": "2 40310  98.1233 131.8083 0015210  96.5051 263.7891 14.76205167598260"
      },
      "geometry": {
        "type": "Point",
        "coordinates": [
          -46.63332726167082,
          9.638726385413234
        ]
      }
    },
    {
      "type": "Feature",
      "properties": {
        "norad_id": 40336,
        "name": "CBERS 4",
        "group": "resource",
        "lat": 13.569098503948648,
        "lon": 56.31530722799155,
        "alt_km": 774.174119195095,
        "timestamp": "2025-12-26T19:22:38.551294+00:00",
        "meta_object_name": "CBERS 4",
        "meta_object_id": "2014-079A",
        "meta_epoch": "2025-12-26T14:17:42.626400",
        "meta_mean_motion": 14.35523494,
        "meta_eccentricity": 0.00018932,
        "meta_inclination": 98.3285,
        "meta_ra_of_asc_node": 58.137,
        "meta_arg_of_pericenter": 97.0026,
        "meta_mean_anomaly": 263.1376,
        "meta_ephemeris_type": 0,
        "meta_classification_type": "U",
        "meta_norad_cat_id": 40336,
        "meta_element_set_no": 999,
        "meta_rev_at_epoch": 57919,
        "meta_bstar": 9.6140279e-05,
        "meta_mean_motion_dot": 2.35e-06,
        "meta_mean_motion_ddot": 0,
        "tle_line1": "1 40336U 14079A   25360.59563225  .00000235  00000+0  96140-4 0  9993",
        "tle_line2": "2 40336  98.3285  58.1370 0001893  97.0026 263.1376 14.35523494579191"
      },
      "geometry": {
        "type": "Point",
        "coordinates": [
          56.31530722799155,
          13.569098503948648
        ]
      }
    },
    {
      "type": "Feature",
      "properties": {
        "norad_id": 40362,
        "name": "YAOGAN-26",
        "group": "resource",
        "lat": -6.910150202338262,
        "lon": -179.8775229320918,
        "alt_km": 453.3499900155912,
        "timestamp": "2025-12-26T19:22:38.551304+00:00",
        "meta_object_name": "YAOGAN-26",
        "meta_object_id": "2014-088A",
        "meta_epoch": "2025-12-26T15:26:56.251968",
        "meta_mean_motion": 15.39782323,
        "meta_eccentricity": 0.00041322,
        "meta_inclination": 97.0649,
        "meta_ra_of_asc_node": 0.8257,
        "meta_arg_of_pericenter": 345.9656,
        "meta_mean_anomaly": 14.1476,
        "meta_ephemeris_type": 0,
        "meta_classification_type": "U",
        "meta_norad_cat_id": 40362,
        "meta_element_set_no": 999,
        "meta_rev_at_epoch": 61108,
        "meta_bstar": 0.00020336383,
        "meta_mean_motion_dot": 7.979e-05,
        "meta_mean_motion_ddot": 0,
        "tle_line1": "1 40362U 14088A   25360.64370662  .00007979  00000+0  20336-3 0  9994",
        "tle_line2": "2 40362  97.0649   0.8257 0004132 345.9656  14.1476 15.39782323611084"
      },
      "geometry": {
        "type": "Point",
        "coordinates": [
          -179.8775229320918,
          -6.910150202338262
        ]
      }
    }
  ]
}